[
    {
        "CCSDS_OMM_VERS": "3.0",
        "COMMENT": "GENERATED VIA SPACE-TRACK.ORG API",
        "CREATION_DATE": "2025-03-02T18:08:23",
        "ORIGINATOR": "18 SPCS",
        "OBJECT_NAME": "QZS-6",
        "OBJECT_ID": "2025-023A",
        "CENTER_NAME": "EARTH",
        "REF_FRAME": "TEME",
        "TIME_SYSTEM": "UTC",
        "MEAN_ELEMENT_THEORY": "SGP4",
        "EPOCH": "2025-03-02T08:18:46.755072",
        "MEAN_MOTION": "1.00270432",
        "ECCENTRICITY": "0.00014230",
        "INCLINATION": "0.0557",
        "RA_OF_ASC_NODE": "328.0919",
        "ARG_OF_PERICENTER": "43.4437",
        "MEAN_ANOMALY": "4.0706",
        "EPHEMERIS_TYPE": "0",
        "CLASSIFICATION_TYPE": "U",
        "NORAD_CAT_ID": "62876",
        "ELEMENT_SET_NO": "999",
        "REV_AT_EPOCH": "22",
        "BSTAR": "0.00000000000000",
        "MEAN_MOTION_DOT": "-0.00000236",
        "MEAN_MOTION_DDOT": "0.0000000000000",
        "SEMIMAJOR_AXIS": "42165.111",
        "PERIOD": "1436.116",
        "APOAPSIS": "35792.976",
        "PERIAPSIS": "35780.976",
        "OBJECT_TYPE": "PAYLOAD",
        "RCS_SIZE": null,
        "COUNTRY_CODE": "JPN",
        "LAUNCH_DATE": "2025-02-02",
        "SITE": "TNSTA",
        "DECAY_DATE": null,
        "FILE": "4657142",
        "GP_ID": "282100286",
        "TLE_LINE0": "0 QZS-6",
        "TLE_LINE1": "1 62876U 25023A   25061.34637448 -.00000236  00000-0  00000-0 0  9996",
        "TLE_LINE2": "2 62876   0.0557 328.0919 0001423  43.4437   4.0706  1.00270432   225"
    }
]